CCSDS_OMM_VERS = 2.0
CREATION_DATE  = 
ORIGINATOR     = 

OBJECT_NAME    = ALOS-2
OBJECT_ID      = 2014-029A
CENTER_NAME    = EARTH
REF_FRAME      = TEME
TIME_SYSTEM    = UTC
MEAN_ELEMENT_THEORY = SGP/SGP4

EPOCH          = 2026-04-01T12:15:52.864128
MEAN_MOTION    = 14.79465242
ECCENTRICITY   = .0002009
INCLINATION    = 97.9198
RA_OF_ASC_NODE = 189.7770
ARG_OF_PERICENTER = 100.9975
MEAN_ANOMALY   = 259.1463

EPHEMERIS_TYPE = 0
CLASSIFICATION_TYPE = U
NORAD_CAT_ID   = 39766
ELEMENT_SET_NO = 999
REV_AT_EPOCH   = 64024
BSTAR          = .32822E-3
MEAN_MOTION_DOT = .24E-4
MEAN_MOTION_DDOT = 0

CCSDS_OMM_VERS = 2.0
CREATION_DATE  = 
ORIGINATOR     = 

OBJECT_NAME    = YAOGAN-29
OBJECT_ID      = 2015-069A
CENTER_NAME    = EARTH
REF_FRAME      = TEME
TIME_SYSTEM    = UTC
MEAN_ELEMENT_THEORY = SGP/SGP4

EPOCH          = 2026-04-01T12:46:39.512928
MEAN_MOTION    = 14.83020563
ECCENTRICITY   = .0000187
INCLINATION    = 98.0110
RA_OF_ASC_NODE = 120.0201
ARG_OF_PERICENTER = 354.9429
MEAN_ANOMALY   = 5.1782

EPHEMERIS_TYPE = 0
CLASSIFICATION_TYPE = U
NORAD_CAT_ID   = 41038
ELEMENT_SET_NO = 999
REV_AT_EPOCH   = 55926
BSTAR          = .5122E-4
MEAN_MOTION_DOT = .362E-5
MEAN_MOTION_DDOT = 0

CCSDS_OMM_VERS = 2.0
CREATION_DATE  = 
ORIGINATOR     = 

OBJECT_NAME    = ASTRO-H (HITOMI)
OBJECT_ID      = 2016-012A
CENTER_NAME    = EARTH
REF_FRAME      = TEME
TIME_SYSTEM    = UTC
MEAN_ELEMENT_THEORY = SGP/SGP4

EPOCH          = 2026-04-01T12:06:29.430720
MEAN_MOTION    = 15.10151380
ECCENTRICITY   = .0009659
INCLINATION    = 30.9992
RA_OF_ASC_NODE = 209.3007
ARG_OF_PERICENTER = 201.3176
MEAN_ANOMALY   = 158.7060

EPHEMERIS_TYPE = 0
CLASSIFICATION_TYPE = U
NORAD_CAT_ID   = 41337
ELEMENT_SET_NO = 999
REV_AT_EPOCH   = 55568
BSTAR          = .21118E-3
MEAN_MOTION_DOT = .3629E-4
MEAN_MOTION_DDOT = 0

CCSDS_OMM_VERS = 2.0
CREATION_DATE  = 
ORIGINATOR     = 

OBJECT_NAME    = HXMT (HUIYAN)
OBJECT_ID      = 2017-034A
CENTER_NAME    = EARTH
REF_FRAME      = TEME
TIME_SYSTEM    = UTC
MEAN_ELEMENT_THEORY = SGP/SGP4

EPOCH          = 2026-04-01T13:12:15.638400
MEAN_MOTION    = 15.17751934
ECCENTRICITY   = .003134
INCLINATION    = 43.0134
RA_OF_ASC_NODE = 249.5488
ARG_OF_PERICENTER = 16.9676
MEAN_ANOMALY   = 343.2214

EPHEMERIS_TYPE = 0
CLASSIFICATION_TYPE = U
NORAD_CAT_ID   = 42758
ELEMENT_SET_NO = 999
REV_AT_EPOCH   = 48601
BSTAR          = .27148E-3
MEAN_MOTION_DOT = .541E-4
MEAN_MOTION_DDOT = 0

CCSDS_OMM_VERS = 2.0
CREATION_DATE  = 
ORIGINATOR     = 

OBJECT_NAME    = H-2A R/B
OBJECT_ID      = 2018-084L
CENTER_NAME    = EARTH
REF_FRAME      = TEME
TIME_SYSTEM    = UTC
MEAN_ELEMENT_THEORY = SGP/SGP4

EPOCH          = 2026-04-01T04:30:25.374816
MEAN_MOTION    = 15.42318515
ECCENTRICITY   = .0023507
INCLINATION    = 98.8700
RA_OF_ASC_NODE = 313.3988
ARG_OF_PERICENTER = 306.3863
MEAN_ANOMALY   = 53.5211

EPHEMERIS_TYPE = 0
CLASSIFICATION_TYPE = U
NORAD_CAT_ID   = 43682
ELEMENT_SET_NO = 999
REV_AT_EPOCH   = 40924
BSTAR          = .43581E-3
MEAN_MOTION_DOT = .1887E-3
MEAN_MOTION_DDOT = 0

CCSDS_OMM_VERS = 2.0
CREATION_DATE  = 
ORIGINATOR     = 

OBJECT_NAME    = SAOCOM 1B
OBJECT_ID      = 2020-059A
CENTER_NAME    = EARTH
REF_FRAME      = TEME
TIME_SYSTEM    = UTC
MEAN_ELEMENT_THEORY = SGP/SGP4

EPOCH          = 2026-04-01T11:24:25.176960
MEAN_MOTION    = 14.82146249
ECCENTRICITY   = .0001425
INCLINATION    = 97.8887
RA_OF_ASC_NODE = 278.4232
ARG_OF_PERICENTER = 87.0425
MEAN_ANOMALY   = 273.0952

EPHEMERIS_TYPE = 0
CLASSIFICATION_TYPE = U
NORAD_CAT_ID   = 46265
ELEMENT_SET_NO = 999
REV_AT_EPOCH   = 30212
BSTAR          = .11776E-3
MEAN_MOTION_DOT = .885E-5
MEAN_MOTION_DDOT = 0

CCSDS_OMM_VERS = 2.0
CREATION_DATE  = 
ORIGINATOR     = 

OBJECT_NAME    = CSS (TIANHE)
OBJECT_ID      = 2021-035A
CENTER_NAME    = EARTH
REF_FRAME      = TEME
TIME_SYSTEM    = UTC
MEAN_ELEMENT_THEORY = SGP/SGP4

EPOCH          = 2026-04-01T08:38:43.102176
MEAN_MOTION    = 15.61804306
ECCENTRICITY   = .0003722
INCLINATION    = 41.4670
RA_OF_ASC_NODE = 70.0996
ARG_OF_PERICENTER = 85.9086
MEAN_ANOMALY   = 274.2179

EPHEMERIS_TYPE = 0
CLASSIFICATION_TYPE = U
NORAD_CAT_ID   = 48274
ELEMENT_SET_NO = 999
REV_AT_EPOCH   = 28115
BSTAR          = .27286E-3
MEAN_MOTION_DOT = .24066E-3
MEAN_MOTION_DDOT = 0

CCSDS_OMM_VERS = 2.0
CREATION_DATE  = 
ORIGINATOR     = 

OBJECT_NAME    = COSMOS 2550
OBJECT_ID      = 2021-056A
CENTER_NAME    = EARTH
REF_FRAME      = TEME
TIME_SYSTEM    = UTC
MEAN_ELEMENT_THEORY = SGP/SGP4

EPOCH          = 2026-04-01T11:17:21.715008
MEAN_MOTION    = 15.33839535
ECCENTRICITY   = .0008328
INCLINATION    = 67.1445
RA_OF_ASC_NODE = 331.9738
ARG_OF_PERICENTER = 269.3207
MEAN_ANOMALY   = 90.6993

EPHEMERIS_TYPE = 0
CLASSIFICATION_TYPE = U
NORAD_CAT_ID   = 48865
ELEMENT_SET_NO = 999
REV_AT_EPOCH   = 26695
BSTAR          = .17705E-3
MEAN_MOTION_DOT = .5639E-4
MEAN_MOTION_DDOT = 0

CCSDS_OMM_VERS = 2.0
CREATION_DATE  = 
ORIGINATOR     = 

OBJECT_NAME    = CZ-2C R/B
OBJECT_ID      = 2022-058K
CENTER_NAME    = EARTH
REF_FRAME      = TEME
TIME_SYSTEM    = UTC
MEAN_ELEMENT_THEORY = SGP/SGP4

EPOCH          = 2026-04-01T00:04:06.343680
MEAN_MOTION    = 15.55949413
ECCENTRICITY   = .0041332
INCLINATION    = 50.1880
RA_OF_ASC_NODE = 203.3672
ARG_OF_PERICENTER = 296.5787
MEAN_ANOMALY   = 63.0952

EPHEMERIS_TYPE = 0
CLASSIFICATION_TYPE = U
NORAD_CAT_ID   = 52794
ELEMENT_SET_NO = 999
REV_AT_EPOCH   = 21360
BSTAR          = .61029E-3
MEAN_MOTION_DOT = .44686E-3
MEAN_MOTION_DDOT = 0

CCSDS_OMM_VERS = 2.0
CREATION_DATE  = 
ORIGINATOR     = 

OBJECT_NAME    = CZ-2C R/B
OBJECT_ID      = 2022-132E
CENTER_NAME    = EARTH
REF_FRAME      = TEME
TIME_SYSTEM    = UTC
MEAN_ELEMENT_THEORY = SGP/SGP4

EPOCH          = 2026-04-01T13:10:41.983392
MEAN_MOTION    = 15.64017818
ECCENTRICITY   = .0016717
INCLINATION    = 97.2951
RA_OF_ASC_NODE = 95.5967
ARG_OF_PERICENTER = 15.5006
MEAN_ANOMALY   = 344.6761

EPHEMERIS_TYPE = 0
CLASSIFICATION_TYPE = U
NORAD_CAT_ID   = 54039
ELEMENT_SET_NO = 999
REV_AT_EPOCH   = 19394
BSTAR          = .49866E-3
MEAN_MOTION_DOT = .4744E-3
MEAN_MOTION_DDOT = 0

CCSDS_OMM_VERS = 2.0
CREATION_DATE  = 
ORIGINATOR     = 

OBJECT_NAME    = GSLV R/B
OBJECT_ID      = 2022-138AN
CENTER_NAME    = EARTH
REF_FRAME      = TEME
TIME_SYSTEM    = UTC
MEAN_ELEMENT_THEORY = SGP/SGP4

EPOCH          = 2026-04-01T04:23:46.987872
MEAN_MOTION    = 14.96915376
ECCENTRICITY   = .002394
INCLINATION    = 87.3855
RA_OF_ASC_NODE = 158.8315
ARG_OF_PERICENTER = 72.6423
MEAN_ANOMALY   = 287.7425

EPHEMERIS_TYPE = 0
CLASSIFICATION_TYPE = U
NORAD_CAT_ID   = 54149
ELEMENT_SET_NO = 999
REV_AT_EPOCH   = 18729
BSTAR          = .25929E-3
MEAN_MOTION_DOT = .3021E-4
MEAN_MOTION_DDOT = 0

